ONEWEB-0710             
1 55173U 23004AK  24111.51767757  .00000162  00000+0  38350-3 0  9994
2 55173  87.9207 162.6417 0002311  98.5812 261.5581 13.17651421 63854
ONEWEB-0711             
1 55174U 23004AL  24111.25879276  .00000446  00000+0  12238-2 0  9997
2 55174  87.9015 177.7936 0002563  79.1476 280.9940 13.11414188 62578
ONEWEB-0713             
1 55175U 23004AM  24111.20033959 -.00000258  00000+0 -76277-3 0  9990
2 55175  87.9015 177.8128 0002153  86.9345 273.2029 13.11414135 62541
ONEWEB-0715             
1 55176U 23004AN  24111.27176641 -.00000094  00000+0 -29986-3 0  9997
2 55176  87.9014 177.7990 0001983  91.7569 268.3786 13.11413384 62606
ONEWEB-0716             
1 55177U 23004AP  24110.60013971  .00000537  00000+0  13492-2 0  9994
2 55177  87.9209 162.8130 0001827  96.4997 263.6343 13.17649865 63731
ONEWEB-0717             
1 55178U 23004AQ  24110.65865668  .00000060  00000+0  12116-3 0  9992
2 55178  87.9207 162.7673 0002985  86.8054 273.3419 13.17650921 63797
ONEWEB-0719             
1 55179U 23004AR  24111.20129463  .00000075  00000+0  16045-3 0  9992
2 55179  87.9206 162.6463 0001857  89.7531 270.3813 13.17648733 63818
ONEWEB-0530             
1 55796U 23029A   24110.91682217  .00000101  00000+0  21697-3 0  9991
2 55796  87.9183  71.3214 0002379  71.2415 288.8976 13.20771656 57805
